IRIDIUM 39              
1 25042U 97069D   25239.59082116  .00000734  00000+0  18660-3 0  9994
2 25042  86.3976 180.5406 0020078  70.5280 289.8091 14.49292758459306
IRIDIUM 38              
1 25043U 97069E   25239.41714360  .00000501  00000+0  15877-3 0  9998
2 25043  86.3988 203.1963 0001584 143.8760 216.2545 14.38166866456198
IRIDIUM 42              
1 25077U 97077A   25239.44121971  .00000453  00000+0  14806-3 0  9994
2 25077  86.3979 209.4388 0001588  99.3071 260.8306 14.36398303451421
IRIDIUM 44              
1 25078U 97077B   25239.41179278  .00000530  00000+0  16119-3 0  9990
2 25078  86.4011 191.2054 0003469 116.7645 243.3909 14.40291217453955
IRIDIUM 45              
1 25104U 97082A   25238.86649643  .00023007  00000+0  76898-3 0  9996
2 25104  86.3609  13.5044 0113022  66.9485 294.3630 15.24826173462806
IRIDIUM 24              
1 25105U 97082B   25239.57058668  .00000553  00000+0  16186-3 0  9992
2 25105  86.3875  49.9980 0010770 191.7381 168.3570 14.42154776453504
IRIDIUM 51              
1 25262U 98018A   25239.42249355  .00039432  00000+0  76182-3 0  9995
2 25262  86.3837  20.4279 0077259 336.0683  23.6987 15.44323451458001
IRIDIUM 57              
1 25273U 98019B   25239.60035448  .00000336  00000+0  10897-3 0  9996
2 25273  86.3948 115.3478 0002072  88.9427 271.2007 14.35933040435033
